STARLINK-37348          
1 68737U 26082K   26113.54943037 -.01005607  00000+0 -55251-2 0  9997
2 68737  97.2885 335.6774 0001210 349.8098  10.3146 15.82187717  1184
