{
  "norad_id": 68737,
  "name": "STARLINK-37348",
  "history": [
    {
      "epoch": "2026-04-23T13:11:10.783968Z",
      "apogee_km": 325.0666942755597,
      "perigee_km": 323.4436429880043,
      "latitude_deg": -1.215783051702404e-05,
      "longitude_deg": -73.712596328893,
      "height_km": 326.6341496664003,
      "semi_major_axis_km": 6702.392168631782,
      "eccentricity": 0.00012108,
      "inclination_deg": 97.2885,
      "raan_deg": 335.6774,
      "arg_perigee_deg": 349.8098,
      "mean_anomaly_deg": 10.3146,
      "mean_motion_rev_day": 15.82187717
    }
  ]
}